STARLINK-35583          
1 66611U 25270Z   25338.02763149 -.00288953  00000+0 -19238-2 0  9990
2 66611  42.9983 244.4157 0002117 269.8179  90.2447 15.75261982  3091
STARLINK-36039          
1 66612U 25270AA  25338.21684257 -.00473872  00000+0 -32170-2 0  9990
2 66612  42.9986 243.2518 0002468 288.8631  71.1971 15.75321693  3014
STARLINK-36037          
1 66613U 25270AB  25337.45647043  .00125531  00000+0  72767-3 0  9999
2 66613  43.0001 247.8703 0004122 349.4174  10.6608 15.77412165  2893
STARLINK-36040          
1 66614U 25270AC  25338.08969965 -.00053378  00000+0 -34480-3 0  9991
2 66614  42.9982 244.0184 0001580 273.7322  86.3367 15.75155659  2837
STARLINK-35988          
1 66615U 25270AD  25338.02595770  .00361862  00000+0  20155-2 0  9996
2 66615  42.9993 244.4008 0012646 273.4991  86.4432 15.77540776  2826
STARLINK-35391          
1 66616U 25270AE  25338.08936096 -.00061081  00000+0 -39567-3 0  9993
2 66616  42.9984 244.0161 0002006 260.4817  99.5825 15.75136623  3108
STARLINK-35940          
1 66617U 25271A   25338.30575296 -.00570206  00000+0 -29443-2 0  9996
2 66617  53.1574 228.6482 0000678  40.0862 320.0211 15.81844120  2887
STARLINK-35970          
1 66618U 25271B   25338.67277059 -.01089130  00000+0 -69931-2 0  9991
2 66618  53.1563 226.6615 0000239 190.9660 169.1356 15.78027582  2946
STARLINK-35951          
1 66619U 25271C   25338.17780926 -.00692598  00000+0 -35608-2 0  9990
2 66619  53.1570 229.2711 0000732 166.7997 193.3046 15.82239043  2861
STARLINK-35936          
1 66620U 25271D   25338.43178393 -.00458200  00000+0 -23825-2 0  9998
2 66620  53.1575 228.0118 0002456  51.4405 308.6838 15.81403867  2906
STARLINK-35847          
1 66621U 25271E   25338.22863890 -.00726477  00000+0 -41389-2 0  9998
2 66621  53.1563 228.8686 0000829 162.0892 198.0160 15.80119551  2871
STARLINK-35950          
1 66622U 25271F   25338.30375906 -.00525909  00000+0 -27019-2 0  9995
2 66622  53.1570 228.6341 0000391 311.7184  48.3805 15.81843167  2889
