CCSDS_OMM_VERS = 2.0
CREATION_DATE  = 
ORIGINATOR     = 

OBJECT_NAME    = STARLINK-35583
OBJECT_ID      = 2025-270Z
CENTER_NAME    = EARTH
REF_FRAME      = TEME
TIME_SYSTEM    = UTC
MEAN_ELEMENT_THEORY = SGP/SGP4

EPOCH          = 2025-12-04T00:39:47.360736
MEAN_MOTION    = 15.75261982
ECCENTRICITY   = .0002117
INCLINATION    = 42.9983
RA_OF_ASC_NODE = 244.4157
ARG_OF_PERICENTER = 269.8179
MEAN_ANOMALY   = 90.2447

EPHEMERIS_TYPE = 0
CLASSIFICATION_TYPE = U
NORAD_CAT_ID   = 66611
ELEMENT_SET_NO = 999
REV_AT_EPOCH   = 309
BSTAR          = -.19238022E-2
MEAN_MOTION_DOT = -.288953E-2
MEAN_MOTION_DDOT = 0

CCSDS_OMM_VERS = 2.0
CREATION_DATE  = 
ORIGINATOR     = 

OBJECT_NAME    = STARLINK-36039
OBJECT_ID      = 2025-270AA
CENTER_NAME    = EARTH
REF_FRAME      = TEME
TIME_SYSTEM    = UTC
MEAN_ELEMENT_THEORY = SGP/SGP4

EPOCH          = 2025-12-04T05:12:15.198048
MEAN_MOTION    = 15.75321693
ECCENTRICITY   = .00024682
INCLINATION    = 42.9986
RA_OF_ASC_NODE = 243.2518
ARG_OF_PERICENTER = 288.8631
MEAN_ANOMALY   = 71.1971

EPHEMERIS_TYPE = 0
CLASSIFICATION_TYPE = U
NORAD_CAT_ID   = 66612
ELEMENT_SET_NO = 999
REV_AT_EPOCH   = 301
BSTAR          = -.32170008E-2
MEAN_MOTION_DOT = -.473872E-2
MEAN_MOTION_DDOT = 0

CCSDS_OMM_VERS = 2.0
CREATION_DATE  = 
ORIGINATOR     = 

OBJECT_NAME    = STARLINK-36037
OBJECT_ID      = 2025-270AB
CENTER_NAME    = EARTH
REF_FRAME      = TEME
TIME_SYSTEM    = UTC
MEAN_ELEMENT_THEORY = SGP/SGP4

EPOCH          = 2025-12-03T10:57:19.045152
MEAN_MOTION    = 15.77412165
ECCENTRICITY   = .0004122
INCLINATION    = 43.0001
RA_OF_ASC_NODE = 247.8703
ARG_OF_PERICENTER = 349.4174
MEAN_ANOMALY   = 10.6608

EPHEMERIS_TYPE = 0
CLASSIFICATION_TYPE = U
NORAD_CAT_ID   = 66613
ELEMENT_SET_NO = 999
REV_AT_EPOCH   = 289
BSTAR          = .72767216E-3
MEAN_MOTION_DOT = .125531E-2
MEAN_MOTION_DDOT = 0

CCSDS_OMM_VERS = 2.0
CREATION_DATE  = 
ORIGINATOR     = 

OBJECT_NAME    = STARLINK-36040
OBJECT_ID      = 2025-270AC
CENTER_NAME    = EARTH
REF_FRAME      = TEME
TIME_SYSTEM    = UTC
MEAN_ELEMENT_THEORY = SGP/SGP4

EPOCH          = 2025-12-04T02:09:10.049760
MEAN_MOTION    = 15.75155659
ECCENTRICITY   = .00015806
INCLINATION    = 42.9982
RA_OF_ASC_NODE = 244.0184
ARG_OF_PERICENTER = 273.7322
MEAN_ANOMALY   = 86.3367

EPHEMERIS_TYPE = 0
CLASSIFICATION_TYPE = U
NORAD_CAT_ID   = 66614
ELEMENT_SET_NO = 999
REV_AT_EPOCH   = 283
BSTAR          = -.34480323E-3
MEAN_MOTION_DOT = -.53378E-3
MEAN_MOTION_DDOT = 0

CCSDS_OMM_VERS = 2.0
CREATION_DATE  = 
ORIGINATOR     = 

OBJECT_NAME    = STARLINK-35988
OBJECT_ID      = 2025-270AD
CENTER_NAME    = EARTH
REF_FRAME      = TEME
TIME_SYSTEM    = UTC
MEAN_ELEMENT_THEORY = SGP/SGP4

EPOCH          = 2025-12-04T00:37:22.745280
MEAN_MOTION    = 15.77540776
ECCENTRICITY   = .0012646
INCLINATION    = 42.9993
RA_OF_ASC_NODE = 244.4008
ARG_OF_PERICENTER = 273.4991
MEAN_ANOMALY   = 86.4432

EPHEMERIS_TYPE = 0
CLASSIFICATION_TYPE = U
NORAD_CAT_ID   = 66615
ELEMENT_SET_NO = 999
REV_AT_EPOCH   = 282
BSTAR          = .20154804E-2
MEAN_MOTION_DOT = .361862E-2
MEAN_MOTION_DDOT = 0

CCSDS_OMM_VERS = 2.0
CREATION_DATE  = 
ORIGINATOR     = 

OBJECT_NAME    = STARLINK-35391
OBJECT_ID      = 2025-270AE
CENTER_NAME    = EARTH
REF_FRAME      = TEME
TIME_SYSTEM    = UTC
MEAN_ELEMENT_THEORY = SGP/SGP4

EPOCH          = 2025-12-04T02:08:40.786944
MEAN_MOTION    = 15.75136623
ECCENTRICITY   = .00020065
INCLINATION    = 42.9984
RA_OF_ASC_NODE = 244.0161
ARG_OF_PERICENTER = 260.4817
MEAN_ANOMALY   = 99.5825

EPHEMERIS_TYPE = 0
CLASSIFICATION_TYPE = U
NORAD_CAT_ID   = 66616
ELEMENT_SET_NO = 999
REV_AT_EPOCH   = 310
BSTAR          = -.39566881E-3
MEAN_MOTION_DOT = -.61081E-3
MEAN_MOTION_DDOT = 0

CCSDS_OMM_VERS = 2.0
CREATION_DATE  = 
ORIGINATOR     = 

OBJECT_NAME    = STARLINK-35940
OBJECT_ID      = 2025-271A
CENTER_NAME    = EARTH
REF_FRAME      = TEME
TIME_SYSTEM    = UTC
MEAN_ELEMENT_THEORY = SGP/SGP4

EPOCH          = 2025-12-04T07:20:17.055744
MEAN_MOTION    = 15.81844120
ECCENTRICITY   = .00006781
INCLINATION    = 53.1574
RA_OF_ASC_NODE = 228.6482
ARG_OF_PERICENTER = 40.0862
MEAN_ANOMALY   = 320.0211

EPHEMERIS_TYPE = 0
CLASSIFICATION_TYPE = U
NORAD_CAT_ID   = 66617
ELEMENT_SET_NO = 999
REV_AT_EPOCH   = 288
BSTAR          = -.29443395E-2
MEAN_MOTION_DOT = -.570206E-2
MEAN_MOTION_DDOT = 0

CCSDS_OMM_VERS = 2.0
CREATION_DATE  = 
ORIGINATOR     = 

OBJECT_NAME    = STARLINK-35970
OBJECT_ID      = 2025-271B
CENTER_NAME    = EARTH
REF_FRAME      = TEME
TIME_SYSTEM    = UTC
MEAN_ELEMENT_THEORY = SGP/SGP4

EPOCH          = 2025-12-04T16:08:47.378976
MEAN_MOTION    = 15.78027582
ECCENTRICITY   = .00002399
INCLINATION    = 53.1563
RA_OF_ASC_NODE = 226.6615
ARG_OF_PERICENTER = 190.9660
MEAN_ANOMALY   = 169.1356

EPHEMERIS_TYPE = 0
CLASSIFICATION_TYPE = U
NORAD_CAT_ID   = 66618
ELEMENT_SET_NO = 999
REV_AT_EPOCH   = 294
BSTAR          = -.69931139E-2
MEAN_MOTION_DOT = -.108913E-1
MEAN_MOTION_DDOT = 0

CCSDS_OMM_VERS = 2.0
CREATION_DATE  = 
ORIGINATOR     = 

OBJECT_NAME    = STARLINK-35951
OBJECT_ID      = 2025-271C
CENTER_NAME    = EARTH
REF_FRAME      = TEME
TIME_SYSTEM    = UTC
MEAN_ELEMENT_THEORY = SGP/SGP4

EPOCH          = 2025-12-04T04:16:02.720064
MEAN_MOTION    = 15.82239043
ECCENTRICITY   = .0000732
INCLINATION    = 53.1570
RA_OF_ASC_NODE = 229.2711
ARG_OF_PERICENTER = 166.7997
MEAN_ANOMALY   = 193.3046

EPHEMERIS_TYPE = 0
CLASSIFICATION_TYPE = U
NORAD_CAT_ID   = 66619
ELEMENT_SET_NO = 999
REV_AT_EPOCH   = 286
BSTAR          = -.35607942E-2
MEAN_MOTION_DOT = -.692598E-2
MEAN_MOTION_DDOT = 0

CCSDS_OMM_VERS = 2.0
CREATION_DATE  = 
ORIGINATOR     = 

OBJECT_NAME    = STARLINK-35936
OBJECT_ID      = 2025-271D
CENTER_NAME    = EARTH
REF_FRAME      = TEME
TIME_SYSTEM    = UTC
MEAN_ELEMENT_THEORY = SGP/SGP4

EPOCH          = 2025-12-04T10:21:46.131552
MEAN_MOTION    = 15.81403867
ECCENTRICITY   = .00024569
INCLINATION    = 53.1575
RA_OF_ASC_NODE = 228.0118
ARG_OF_PERICENTER = 51.4405
MEAN_ANOMALY   = 308.6838

EPHEMERIS_TYPE = 0
CLASSIFICATION_TYPE = U
NORAD_CAT_ID   = 66620
ELEMENT_SET_NO = 999
REV_AT_EPOCH   = 290
BSTAR          = -.23825487E-2
MEAN_MOTION_DOT = -.4582E-2
MEAN_MOTION_DDOT = 0

CCSDS_OMM_VERS = 2.0
CREATION_DATE  = 
ORIGINATOR     = 

OBJECT_NAME    = STARLINK-35847
OBJECT_ID      = 2025-271E
CENTER_NAME    = EARTH
REF_FRAME      = TEME
TIME_SYSTEM    = UTC
MEAN_ELEMENT_THEORY = SGP/SGP4

EPOCH          = 2025-12-04T05:29:14.400960
MEAN_MOTION    = 15.80119551
ECCENTRICITY   = .00008297
INCLINATION    = 53.1563
RA_OF_ASC_NODE = 228.8686
ARG_OF_PERICENTER = 162.0892
MEAN_ANOMALY   = 198.0160

EPHEMERIS_TYPE = 0
CLASSIFICATION_TYPE = U
NORAD_CAT_ID   = 66621
ELEMENT_SET_NO = 999
REV_AT_EPOCH   = 287
BSTAR          = -.41389351E-2
MEAN_MOTION_DOT = -.726477E-2
MEAN_MOTION_DDOT = 0

CCSDS_OMM_VERS = 2.0
CREATION_DATE  = 
ORIGINATOR     = 

OBJECT_NAME    = STARLINK-35950
OBJECT_ID      = 2025-271F
CENTER_NAME    = EARTH
REF_FRAME      = TEME
TIME_SYSTEM    = UTC
MEAN_ELEMENT_THEORY = SGP/SGP4

EPOCH          = 2025-12-04T07:17:24.782784
MEAN_MOTION    = 15.81843167
ECCENTRICITY   = .00003916
INCLINATION    = 53.1570
RA_OF_ASC_NODE = 228.6341
ARG_OF_PERICENTER = 311.7184
MEAN_ANOMALY   = 48.3805

EPHEMERIS_TYPE = 0
CLASSIFICATION_TYPE = U
NORAD_CAT_ID   = 66622
ELEMENT_SET_NO = 999
REV_AT_EPOCH   = 288
BSTAR          = -.27019493E-2
MEAN_MOTION_DOT = -.525909E-2
MEAN_MOTION_DDOT = 0

